[{"OBJECT_NAME":"STARLINK-5121","OBJECT_ID":"2022-125AF","EPOCH":"2023-10-22T08:07:31.514880","MEAN_MOTION":15.08836192,"ECCENTRICITY":0.0001608,"INCLINATION":53.2153,"RA_OF_ASC_NODE":151.5421,"ARG_OF_PERICENTER":84.8468,"MEAN_ANOMALY":275.2707,"EPHEMERIS_TYPE":0,"CLASSIFICATION_TYPE":"U","NORAD_CAT_ID":53993,"ELEMENT_SET_NO":999,"REV_AT_EPOCH":5828,"BSTAR":0.0004648,"MEAN_MOTION_DOT":7.116e-5,"MEAN_MOTION_DDOT":0},{"OBJECT_NAME":"STARLINK-5125","OBJECT_ID":"2022-125AG","EPOCH":"2023-10-21T22:53:06.669024","MEAN_MOTION":15.0886709,"ECCENTRICITY":0.0001391,"INCLINATION":53.2146,"RA_OF_ASC_NODE":158.3985,"ARG_OF_PERICENTER":84.928,"MEAN_ANOMALY":275.1871,"EPHEMERIS_TYPE":0,"CLASSIFICATION_TYPE":"U","NORAD_CAT_ID":53994,"ELEMENT_SET_NO":999,"REV_AT_EPOCH":5816,"BSTAR":0.0011738,"MEAN_MOTION_DOT":0.00018456,"MEAN_MOTION_DDOT":0},{"OBJECT_NAME":"STARLINK-5097","OBJECT_ID":"2022-125AH","EPOCH":"2023-10-22T08:36:02.238336","MEAN_MOTION":15.08847886,"ECCENTRICITY":0.0001247,"INCLINATION":53.2149,"RA_OF_ASC_NODE":156.662,"ARG_OF_PERICENTER":88.9235,"MEAN_ANOMALY":271.19,"EPHEMERIS_TYPE":0,"CLASSIFICATION_TYPE":"U","NORAD_CAT_ID":53995,"ELEMENT_SET_NO":999,"REV_AT_EPOCH":5821,"BSTAR":0.00020432,"MEAN_MOTION_DOT":2.966e-5,"MEAN_MOTION_DDOT":0},{"OBJECT_NAME":"STARLINK-5131","OBJECT_ID":"2022-125AJ","EPOCH":"2023-10-22T08:20:07.111392","MEAN_MOTION":15.08849065,"ECCENTRICITY":0.000156,"INCLINATION":53.2171,"RA_OF_ASC_NODE":156.5916,"ARG_OF_PERICENTER":87.8819,"MEAN_ANOMALY":272.2352,"EPHEMERIS_TYPE":0,"CLASSIFICATION_TYPE":"U","NORAD_CAT_ID":53996,"ELEMENT_SET_NO":999,"REV_AT_EPOCH":5822,"BSTAR":0.0002972,"MEAN_MOTION_DOT":4.446e-5,"MEAN_MOTION_DDOT":0},{"OBJECT_NAME":"STARLINK-5130","OBJECT_ID":"2022-125AK","EPOCH":"2023-10-22T07:33:50.095296","MEAN_MOTION":15.08833761,"ECCENTRICITY":0.0002379,"INCLINATION":53.2156,"RA_OF_ASC_NODE":147.121,"ARG_OF_PERICENTER":82.6624,"MEAN_ANOMALY":277.4638,"EPHEMERIS_TYPE":0,"CLASSIFICATION_TYPE":"U","NORAD_CAT_ID":53997,"ELEMENT_SET_NO":999,"REV_AT_EPOCH":5835,"BSTAR":0.00013018,"MEAN_MOTION_DOT":1.784e-5,"MEAN_MOTION_DDOT":0},{"OBJECT_NAME":"STARLINK-5128","OBJECT_ID":"2022-125AL","EPOCH":"2023-10-22T08:10:52.995360","MEAN_MOTION":15.08852942,"ECCENTRICITY":0.000165,"INCLINATION":53.2147,"RA_OF_ASC_NODE":156.5512,"ARG_OF_PERICENTER":98.8903,"MEAN_ANOMALY":261.2276,"EPHEMERIS_TYPE":0,"CLASSIFICATION_TYPE":"U","NORAD_CAT_ID":53998,"ELEMENT_SET_NO":999,"REV_AT_EPOCH":5822,"BSTAR":0.00016045,"MEAN_MOTION_DOT":2.267e-5,"MEAN_MOTION_DDOT":0},{"OBJECT_NAME":"STARLINK-5079","OBJECT_ID":"2022-125AM","EPOCH":"2023-10-22T08:30:43.997760","MEAN_MOTION":15.08845888,"ECCENTRICITY":0.0001844,"INCLINATION":53.2178,"RA_OF_ASC_NODE":156.6355,"ARG_OF_PERICENTER":85.6066,"MEAN_ANOMALY":274.5137,"EPHEMERIS_TYPE":0,"CLASSIFICATION_TYPE":"U","NORAD_CAT_ID":53999,"ELEMENT_SET_NO":999,"REV_AT_EPOCH":5822,"BSTAR":0.00025025,"MEAN_MOTION_DOT":3.698e-5,"MEAN_MOTION_DDOT":0},{"OBJECT_NAME":"STARLINK-5088","OBJECT_ID":"2022-125AN","EPOCH":"2023-10-22T13:50:04.731360","MEAN_MOTION":15.08823679,"ECCENTRICITY":0.0002477,"INCLINATION":53.2154,"RA_OF_ASC_NODE":145.9101,"ARG_OF_PERICENTER":83.5963,"MEAN_ANOMALY":276.5312,"EPHEMERIS_TYPE":0,"CLASSIFICATION_TYPE":"U","NORAD_CAT_ID":54000,"ELEMENT_SET_NO":999,"REV_AT_EPOCH":5839,"BSTAR":-1.0964e-5,"MEAN_MOTION_DOT":-4.63e-6,"MEAN_MOTION_DDOT":0},{"OBJECT_NAME":"STARLINK-5105","OBJECT_ID":"2022-125AP","EPOCH":"2023-10-22T08:09:30.509280","MEAN_MOTION":15.08842168,"ECCENTRICITY":0.0001588,"INCLINATION":53.2157,"RA_OF_ASC_NODE":156.5435,"ARG_OF_PERICENTER":75.336,"MEAN_ANOMALY":284.7808,"EPHEMERIS_TYPE":0,"CLASSIFICATION_TYPE":"U","NORAD_CAT_ID":54001,"ELEMENT_SET_NO":999,"REV_AT_EPOCH":5822,"BSTAR":5.8426e-5,"MEAN_MOTION_DOT":6.42e-6,"MEAN_MOTION_DDOT":0},{"OBJECT_NAME":"STARLINK-5109","OBJECT_ID":"2022-125AQ","EPOCH":"2023-10-22T08:00:14.503680","MEAN_MOTION":15.08833749,"ECCENTRICITY":0.0001946,"INCLINATION":53.2163,"RA_OF_ASC_NODE":146.5501,"ARG_OF_PERICENTER":90.065,"MEAN_ANOMALY":270.0565,"EPHEMERIS_TYPE":0,"CLASSIFICATION_TYPE":"U","NORAD_CAT_ID":54002,"ELEMENT_SET_NO":999,"REV_AT_EPOCH":5836,"BSTAR":0.00014383,"MEAN_MOTION_DOT":2.001e-5,"MEAN_MOTION_DDOT":0},{"OBJECT_NAME":"STARLINK-5114","OBJECT_ID":"2022-125AR","EPOCH":"2023-10-22T08:14:49.123968","MEAN_MOTION":15.08844553,"ECCENTRICITY":0.000185,"INCLINATION":53.2163,"RA_OF_ASC_NODE":156.5632,"ARG_OF_PERICENTER":78.9213,"MEAN_ANOMALY":281.1987,"EPHEMERIS_TYPE":0,"CLASSIFICATION_TYPE":"U","NORAD_CAT_ID":54003,"ELEMENT_SET_NO":999,"REV_AT_EPOCH":5822,"BSTAR":-4.566e-5,"MEAN_MOTION_DOT":-1.015e-5,"MEAN_MOTION_DDOT":0},{"OBJECT_NAME":"STARLINK-5129","OBJECT_ID":"2022-125AS","EPOCH":"2023-10-22T07:58:54.125760","MEAN_MOTION":15.08842832,"ECCENTRICITY":0.0001827,"INCLINATION":53.216,"RA_OF_ASC_NODE":156.4981,"ARG_OF_PERICENTER":83.0608,"MEAN_ANOMALY":277.0592,"EPHEMERIS_TYPE":0,"CLASSIFICATION_TYPE":"U","NORAD_CAT_ID":54004,"ELEMENT_SET_NO":999,"REV_AT_EPOCH":5822,"BSTAR":0.00031642,"MEAN_MOTION_DOT":4.752e-5,"MEAN_MOTION_DDOT":0},{"OBJECT_NAME":"STARLINK-5135","OBJECT_ID":"2022-125AT","EPOCH":"2023-10-22T08:04:12.396576","MEAN_MOTION":15.08850677,"ECCENTRICITY":0.0001733,"INCLINATION":53.2157,"RA_OF_ASC_NODE":156.5225,"ARG_OF_PERICENTER":81.1067,"MEAN_ANOMALY":279.0121,"EPHEMERIS_TYPE":0,"CLASSIFICATION_TYPE":"U","NORAD_CAT_ID":54005,"ELEMENT_SET_NO":999,"REV_AT_EPOCH":5822,"BSTAR":0.00032686,"MEAN_MOTION_DOT":4.919e-5,"MEAN_MOTION_DDOT":0},{"OBJECT_NAME":"STARLINK-5096","OBJECT_ID":"2022-125AU","EPOCH":"2023-10-22T07:42:58.755168","MEAN_MOTION":15.08846941,"ECCENTRICITY":0.0001685,"INCLINATION":53.2168,"RA_OF_ASC_NODE":156.4381,"ARG_OF_PERICENTER":82.7912,"MEAN_ANOMALY":277.3272,"EPHEMERIS_TYPE":0,"CLASSIFICATION_TYPE":"U","NORAD_CAT_ID":54006,"ELEMENT_SET_NO":999,"REV_AT_EPOCH":5821,"BSTAR":5.5416e-5,"MEAN_MOTION_DOT":5.94e-6,"MEAN_MOTION_DDOT":0},{"OBJECT_NAME":"STARLINK-5132","OBJECT_ID":"2022-125AV","EPOCH":"2023-10-22T07:53:35.575872","MEAN_MOTION":15.08822336,"ECCENTRICITY":0.00015,"INCLINATION":53.2177,"RA_OF_ASC_NODE":156.4789,"ARG_OF_PERICENTER":90.3628,"MEAN_ANOMALY":269.7536,"EPHEMERIS_TYPE":0,"CLASSIFICATION_TYPE":"U","NORAD_CAT_ID":54007,"ELEMENT_SET_NO":999,"REV_AT_EPOCH":5822,"BSTAR":0.00031867,"MEAN_MOTION_DOT":4.785e-5,"MEAN_MOTION_DDOT":0},{"OBJECT_NAME":"STARLINK-5145","OBJECT_ID":"2022-125AW","EPOCH":"2023-10-22T07:49:37.393536","MEAN_MOTION":15.08842313,"ECCENTRICITY":0.0001469,"INCLINATION":53.2166,"RA_OF_ASC_NODE":146.4884,"ARG_OF_PERICENTER":87.8864,"MEAN_ANOMALY":272.2296,"EPHEMERIS_TYPE":0,"CLASSIFICATION_TYPE":"U","NORAD_CAT_ID":54008,"ELEMENT_SET_NO":999,"REV_AT_EPOCH":5836,"BSTAR":0.00036656,"MEAN_MOTION_DOT":5.551e-5,"MEAN_MOTION_DDOT":0},{"OBJECT_NAME":"STARLINK-5099","OBJECT_ID":"2022-125AX","EPOCH":"2023-10-22T07:48:17.072640","MEAN_MOTION":15.08846318,"ECCENTRICITY":0.0001373,"INCLINATION":53.2168,"RA_OF_ASC_NODE":156.4523,"ARG_OF_PERICENTER":76.1145,"MEAN_ANOMALY":284,"EPHEMERIS_TYPE":0,"CLASSIFICATION_TYPE":"U","NORAD_CAT_ID":54009,"ELEMENT_SET_NO":999,"REV_AT_EPOCH":5822,"BSTAR":9.3969e-5,"MEAN_MOTION_DOT":1.208e-5,"MEAN_MOTION_DDOT":0},{"OBJECT_NAME":"STARLINK-5127","OBJECT_ID":"2022-125AY","EPOCH":"2023-10-22T07:39:00.654912","MEAN_MOTION":15.08834357,"ECCENTRICITY":0.0001315,"INCLINATION":53.2172,"RA_OF_ASC_NODE":146.45,"ARG_OF_PERICENTER":87.3863,"MEAN_ANOMALY":272.728,"EPHEMERIS_TYPE":0,"CLASSIFICATION_TYPE":"U","NORAD_CAT_ID":54010,"ELEMENT_SET_NO":999,"REV_AT_EPOCH":5836,"BSTAR":8.9397e-5,"MEAN_MOTION_DOT":1.135e-5,"MEAN_MOTION_DDOT":0},{"OBJECT_NAME":"STARLINK-5124","OBJECT_ID":"2022-125AZ","EPOCH":"2023-10-22T07:23:12.781248","MEAN_MOTION":15.08838902,"ECCENTRICITY":0.000188,"INCLINATION":53.2152,"RA_OF_ASC_NODE":147.0744,"ARG_OF_PERICENTER":84.9466,"MEAN_ANOMALY":275.1741,"EPHEMERIS_TYPE":0,"CLASSIFICATION_TYPE":"U","NORAD_CAT_ID":54011,"ELEMENT_SET_NO":999,"REV_AT_EPOCH":5835,"BSTAR":-7.2774e-5,"MEAN_MOTION_DOT":-1.446e-5,"MEAN_MOTION_DDOT":0},{"OBJECT_NAME":"STARLINK-5126","OBJECT_ID":"2022-125BA","EPOCH":"2023-10-21T21:13:44.883264","MEAN_MOTION":15.0885034,"ECCENTRICITY":0.0001515,"INCLINATION":53.2167,"RA_OF_ASC_NODE":148.7031,"ARG_OF_PERICENTER":89.9135,"MEAN_ANOMALY":270.2031,"EPHEMERIS_TYPE":0,"CLASSIFICATION_TYPE":"U","NORAD_CAT_ID":54012,"ELEMENT_SET_NO":999,"REV_AT_EPOCH":5834,"BSTAR":0.00037264,"MEAN_MOTION_DOT":5.649e-5,"MEAN_MOTION_DDOT":0},{"OBJECT_NAME":"STARLINK-5098","OBJECT_ID":"2022-125BB","EPOCH":"2023-10-22T06:56:40.334208","MEAN_MOTION":15.08846459,"ECCENTRICITY":0.0001004,"INCLINATION":53.2164,"RA_OF_ASC_NODE":146.9644,"ARG_OF_PERICENTER":74.3297,"MEAN_ANOMALY":285.7805,"EPHEMERIS_TYPE":0,"CLASSIFICATION_TYPE":"U","NORAD_CAT_ID":54013,"ELEMENT_SET_NO":999,"REV_AT_EPOCH":5835,"BSTAR":0.00027806,"MEAN_MOTION_DOT":4.141e-5,"MEAN_MOTION_DDOT":0},{"OBJECT_NAME":"STARLINK-5116","OBJECT_ID":"2022-125BC","EPOCH":"2023-10-22T06:51:24.899904","MEAN_MOTION":15.08803757,"ECCENTRICITY":0.0001446,"INCLINATION":53.2173,"RA_OF_ASC_NODE":146.9422,"ARG_OF_PERICENTER":100.6796,"MEAN_ANOMALY":259.4359,"EPHEMERIS_TYPE":0,"CLASSIFICATION_TYPE":"U","NORAD_CAT_ID":54014,"ELEMENT_SET_NO":999,"REV_AT_EPOCH":5835,"BSTAR":-0.00034979,"MEAN_MOTION_DOT":-5.845e-5,"MEAN_MOTION_DDOT":0},{"OBJECT_NAME":"STARLINK-5055","OBJECT_ID":"2022-125BD","EPOCH":"2023-10-21T21:03:07.626240","MEAN_MOTION":15.08861414,"ECCENTRICITY":0.0001257,"INCLINATION":53.2159,"RA_OF_ASC_NODE":148.6573,"ARG_OF_PERICENTER":87.1733,"MEAN_ANOMALY":272.9403,"EPHEMERIS_TYPE":0,"CLASSIFICATION_TYPE":"U","NORAD_CAT_ID":54015,"ELEMENT_SET_NO":999,"REV_AT_EPOCH":5834,"BSTAR":-0.00013016,"MEAN_MOTION_DOT":-2.36e-5,"MEAN_MOTION_DDOT":0}]
